QIANFAN-60              
1 62790U 25016F   25317.59869672  .00000104  00000+0  14214-3 0  9997
2 62790  88.9734 106.0892 0017249  70.6647 289.6367 13.50975090 43292
QIANFAN-61              
1 62791U 25016G   25317.55734686  .00000048  00000+0  55852-4 0  9991
2 62791  88.9801 106.2364 0016182  70.2986 289.9910 13.50972103 43302
QIANFAN-62              
1 62792U 25016H   25317.56157823  .00000184  00000+0  26535-3 0  9991
2 62792  88.9747 106.1202 0017571  70.4175 289.8872 13.50982286 43294
QIANFAN-63              
1 62793U 25016J   25317.58624331  .00000177  00000+0  25508-3 0  9998
2 62793  88.9754 106.0673 0017685  75.2339 285.0770 13.50975363 43333
QIANFAN-64              
1 62794U 25016K   25317.55327237  .00000178  00000+0  25618-3 0  9994
2 62794  88.9741 106.0487 0015540  69.2345 291.0470 13.50977198 43322
QIANFAN-65              
1 62795U 25016L   25317.54920383  .00000179  00000+0  25843-3 0  9996
2 62795  88.9737 106.0762 0015392  70.8859 289.3957 13.50976196 43302
QIANFAN-66              
1 62796U 25016M   25317.57801895  .00000170  00000+0  24388-3 0  9990
2 62796  88.9757 106.0376 0016437  66.5453 293.7424 13.50980221 43356
QIANFAN-67              
1 62797U 25016N   25317.65623841  .00000173  00000+0  24880-3 0  9993
2 62797  88.9747 106.0580 0016505  72.6460 287.6495 13.50973106 43337
QIANFAN-68              
1 62798U 25016P   25317.64798421  .00000176  00000+0  25306-3 0  9997
2 62798  88.9751 106.1030 0016539  71.0352 289.2590 13.50975447 43316
QIANFAN-69              
1 62799U 25016Q   25317.59047091  .00000183  00000+0  26453-3 0  9994
2 62799  88.9729 105.9846 0017312  72.0431 288.2606 13.50972658 43344
QIANFAN-70              
1 62800U 25016R   25317.60672427  .00000185  00000+0  26764-3 0  9993
2 62800  88.9750 106.1152 0016756  63.2235 297.0628 13.50975901 43301
QIANFAN-71              
1 62801U 25016S   25317.60269622  .00000180  00000+0  25925-3 0  9996
2 62801  88.9744 106.0969 0017268  75.2540 285.0523 13.50976413 43301
QIANFAN-72              
1 62802U 25016T   25317.54510734  .00000179  00000+0  25733-3 0  9998
2 62802  88.9735 106.1191 0020605  81.6740 278.6746 13.50976277 43282
QIANFAN-73              
1 63159U 25046A   25317.57198089  .00000090  00000+0  12117-3 0  9999
2 63159  88.9754 323.0452 0014158 201.6010 158.4546 13.50973327 43476
QIANFAN-74              
1 63160U 25046B   25317.55546140  .00000085  00000+0  11313-3 0  9995
2 63160  88.9754 322.9355 0002025  89.4166 270.7218 13.50975292 43536
QIANFAN-75              
1 63161U 25046C   25317.54286360  .00000155  00000+0  22162-3 0  9992
2 63161  88.9756 323.1700 0015190 205.4137 154.6269 13.50987006 43409
QIANFAN-76              
1 63162U 25046D   25317.53908781 -.00000043  00000+0 -85931-4 0  9992
2 63162  88.9750 323.1513 0012743 205.2039 154.8492 13.50967788 43412
QIANFAN-77              
1 63163U 25046E   25317.58621948  .00000303  00000+0  21053-3 0  9996
2 63163  88.9755 321.3924 0015225 164.0121 196.1539 13.96083685 44389
QIANFAN-78              
1 63164U 25046F   25317.58019287  .00000057  00000+0  69111-4 0  9998
2 63164  88.9754 323.0112 0014045 207.9120 152.1279 13.50974563 43490
QIANFAN-79              
1 63165U 25046G   25317.60888073  .00000100  00000+0  13553-3 0  9996
2 63165  88.9758 323.1147 0013796 205.8450 154.2013 13.50974961 43445
QIANFAN-80              
1 63166U 25046H   25317.55134806  .00000123  00000+0  17266-3 0  9999
2 63166  88.9755 322.8281 0012632 210.2221 149.8203 13.50978142 43594
QIANFAN-81              
1 63167U 25046J   25317.60426779  .00000169  00000+0  24343-3 0  9993
2 63167  88.9755 322.8908 0014000 198.1595 161.9058 13.50994462 43552
QIANFAN-82              
1 63168U 25046K   25317.56375204  .00000134  00000+0  18869-3 0  9993
2 63168  88.9755 322.9387 0011908 205.6668 154.3894 13.50974900 43531
QIANFAN-83              
1 63169U 25046L   25317.60585846  .00000128  00000+0  14993-3 0  9991
2 63169  88.9756 322.7679 0013584 192.2201 167.8629 13.61968593 43630
QIANFAN-84              
1 63170U 25046M   25317.59178446  .00000010  00000+0 -35878-5 0  9993
2 63170  88.9750 323.0687 0014994 203.4766 156.5702 13.50986463 43468
QIANFAN-85              
1 63171U 25046N   25317.58836860  .00000145  00000+0  20551-3 0  9992
2 63171  88.9754 322.9408 0012294 204.6127 155.4439 13.50979371 43530
QIANFAN-86              
1 63172U 25046P   25317.59667205  .00000134  00000+0  18950-3 0  9997
2 63172  88.9757 322.8014 0010070 207.7382 152.3234 13.50976351 43616
QIANFAN-87              
1 63173U 25046Q   25317.56791081  .00000085  00000+0  11281-3 0  9990
2 63173  88.9753 322.9172 0010861 203.0078 157.0588 13.50970518 43543
QIANFAN-88              
1 63174U 25046R   25317.58435389  .00000128  00000+0  17986-3 0  9995
2 63174  88.9756 322.8692 0011026 211.9175 148.1310 13.50974242 43578
QIANFAN-89              
1 63175U 25046S   25317.54712356  .00000141  00000+0  19904-3 0  9991
2 63175  88.9756 323.0622 0015614 204.1519 155.8902 13.50976824 43466
QIANFAN-90              
1 63176U 25046T   25317.57585605  .00000064  00000+0  79753-4 0  9993
2 63176  88.9756 323.0317 0012629 200.6775 159.3867 13.50974431 43489
QIANFAN-91              
1 66033U 25233A   25317.56972628  .00001454  00000+0  63032-3 0  9996
2 66033  88.9968  65.3912 0017360 125.1189 235.1633 14.23692688  3889
QIANFAN-92              
1 66034U 25233B   25317.42833103  .00001358  00000+0  58982-3 0  9997
2 66034  88.9967  65.4070 0016675 127.1145 233.1574 14.23556525  3866
QIANFAN-93              
1 66035U 25233C   25317.49618475  .00001535  00000+0  65138-3 0  9996
2 66035  88.9948  65.3969 0015917 128.1758 232.0871 14.24841785  3876
QIANFAN-94              
1 66036U 25233D   25317.63707553  .00001383  00000+0  59796-3 0  9993
2 66036  88.9962  65.3822 0016089 125.6729 234.5964 14.23791671  3891
QIANFAN-95              
1 66037U 25233E   25317.56492884  .00001612  00000+0  66700-3 0  9992
2 66037  88.9959  65.3893 0016089 127.4424 232.8236 14.26174388  3883
QIANFAN-96              
1 66038U 25233F   25317.63651810  .00001193  00000+0  51864-3 0  9996
2 66038  88.9959  65.3807 0016564 127.8410 232.4284 14.23443906  3898
QIANFAN-97              
1 66039U 25233G   25317.56555148  .00001370  00000+0  58993-3 0  9993
2 66039  88.9960  65.3910 0016600 128.4596 231.8089 14.23993245  3880
QIANFAN-98              
1 66040U 25233H   25317.56413717  .00001576  00000+0  65143-3 0  9993
2 66040  88.9959  65.3893 0015943 127.5502 232.7143 14.26205141  3881
QIANFAN-99              
1 66041U 25233J   25317.56524946  .00001350  00000+0  58389-3 0  9995
2 66041  88.9957  65.3893 0016025 125.9839 234.2842 14.23759644  3889
QIANFAN-100             
1 66042U 25233K   25317.56374404  .00001581  00000+0  65320-3 0  9997
2 66042  88.9959  65.3893 0016543 128.2026 232.0660 14.26236152  3882
QIANFAN-101             
1 66043U 25233L   25317.55877632  .00000808  00000+0  32806-3 0  9992
2 66043  88.9960  65.3885 0016571 126.3760 233.8966 14.26646506  3887
QIANFAN-102             
1 66044U 25233M   25317.56383802  .00001595  00000+0  67041-3 0  9998
2 66044  88.9959  65.3897 0016997 128.2937 231.9787 14.25342837  3887
QIANFAN-103             
1 66045U 25233N   25317.63465482  .00001223  00000+0  52942-3 0  9994
2 66045  88.9950  65.3817 0016198 125.9071 234.3627 14.23689194  3896
QIANFAN-104             
1 66046U 25233P   25317.56307337  .00001572  00000+0  66008-3 0  9996
2 66046  88.9966  65.3904 0016346 129.3226 230.9419 14.25373866  3884
QIANFAN-105             
1 66047U 25233Q   25317.56312469  .00000687  00000+0  29078-3 0  9991
2 66047  88.9956  65.3890 0016408 128.4057 231.8612 14.24307955  3889
QIANFAN-106             
1 66048U 25233R   25317.56300505  .00001451  00000+0  61878-3 0  9994
2 66048  88.9956  65.3885 0016361 128.5197 231.7465 14.24563335  3889
QIANFAN-107             
1 66049U 25233S   25317.56227350  .00001504  00000+0  63446-3 0  9993
2 66049  88.9958  65.3879 0017076 127.4003 232.8747 14.25125428  3886
QIANFAN-108             
1 66050U 25233T   25317.63285368  .00000997  00000+0  42579-3 0  9995
2 66050  88.9963  65.3822 0017128 127.5768 232.6983 14.24225409  3899
